0 COSMOS 2251 DEB
1 34412U 93036RD  13281.80885944  .00000785  00000-0  25672-3 0    37
2 34412 073.9566 193.7665 0257333 188.1696 230.6986 14.23123433240490
0 COSMOS 2251 DEB
1 34412U 93036RD  13282.86634825  .00000921  00000-0  29953-3 0    43
2 34412 073.9567 191.8542 0257267 186.0248 248.4751 14.23128414240648
0 COSMOS 2251 DEB
1 34412U 93036RD  13283.92680534  .00001081  00000-0  34964-3 0    56
2 34412 073.9567 189.9362 0257219 183.8730 281.4778 14.23129521240796
0 COSMOS 2251 DEB
1 34412U 93036RD  13285.20193786  .00000964  00000-0  31285-3 0    60
2 34412 073.9566 187.6301 0257162 181.2828 334.3304 14.23131143240976
0 COSMOS 2251 DEB
1 34412U 93036RD  13287.17010053  .00001235  00000-0  39811-3 0    79
2 34412 073.9562 184.0706 0257080 177.2915 337.7772 14.23134267241251
0 COSMOS 2251 DEB
1 34412U 93036RD  13289.13796251  .00001431  00000-0  45983-3 0    84
2 34412 073.9558 180.5115 0256995 173.3077 339.7035 14.23142840241532
0 COSMOS 2251 DEB
1 34412U 93036RD  13291.09977325  .00001395  00000-0  44865-3 0    93
2 34412 073.9555 176.9634 0256889 169.3085 310.7071 14.23147786241814
0 COSMOS 2251 DEB
1 34412U 93036RD  13292.16175939  .00001560  00000-0  50042-3 0   103
2 34412 073.9556 175.0426 0256890 167.1267 351.6486 14.23149223241962
0 COSMOS 2251 DEB
1 34412U 93036RD  13293.76026358  .00001812  00000-0  58004-3 0   117
2 34412 073.9553 172.1515 0256828 163.8966 261.3331 14.23153513242195
0 COSMOS 2251 DEB
1 34412U 93036RD  13295.11423429  .00001952  00000-0  62386-3 0   122
2 34412 073.9553 169.7025 0256770 161.1362 358.2296 14.23157694242381
